STARLINK-31812          
1 59800U 24093U   26068.42330934 -.00002089  00000+0 -66400-4 0  9990
2 59800  43.0000 210.4852 0001443 270.2523  89.8163 15.27577257102721
TEVEL2-9                
1 63237U 25052AD  26068.70229538  .00018694  00000+0  67240-3 0  9992
2 63237  97.4057 324.3929 0007990 124.2475 235.9522 15.28633834 54816
